$$SOE
2459580.500000000, A.D. 2022-Jan-01 00:00:00.0000, -3.495852219399350E+08, 2.224320008522651E+08, 5.978029575504825E+06,
2459587.500000000, A.D. 2022-Jan-08 00:00:00.0000, -3.553148660639981E+08, 2.140989825340468E+08, 6.303985963856563E+06,
2459594.500000000, A.D. 2022-Jan-15 00:00:00.0000, -3.608030308590237E+08, 2.056204258122885E+08, 6.625658167567253E+06,
2459601.500000000, A.D. 2022-Jan-22 00:00:00.0000, -3.660467819997588E+08, 1.970025495310957E+08, 6.942841832680702E+06,
2459608.500000000, A.D. 2022-Jan-29 00:00:00.0000, -3.710433058037041E+08, 1.882515947245064E+08, 7.255335877184868E+06,
2459615.500000000, A.D. 2022-Feb-05 00:00:00.0000, -3.757899094204370E+08, 1.793738239649479E+08, 7.562942578799181E+06,
2459622.500000000, A.D. 2022-Feb-12 00:00:00.0000, -3.802840190020503E+08, 1.703755197656938E+08, 7.865467380230300E+06,
2459629.500000000, A.D. 2022-Feb-19 00:00:00.0000, -3.845231771747552E+08, 1.612629843935426E+08, 8.162718727341965E+06,
2459636.500000000, A.D. 2022-Feb-26 00:00:00.0000, -3.885050411244282E+08, 1.520425403570500E+08, 8.454508001275532E+06,
2459643.500000000, A.D. 2022-Mar-05 00:00:00.0000, -3.922273811399568E+08, 1.427205309446132E+08, 8.740649479214497E+06,
2459650.500000000, A.D. 2022-Mar-12 00:00:00.0000, -3.956880793956708E+08, 1.333033207391603E+08, 9.020960297806941E+06,
2459657.500000000, A.D. 2022-Mar-19 00:00:00.0000, -3.988851289048738E+08, 1.237972961310336E+08, 9.295260414755002E+06,
2459664.500000000, A.D. 2022-Mar-26 00:00:00.0000, -4.018166326246330E+08, 1.142088658173497E+08, 9.563372565854311E+06,
2459671.500000000, A.D. 2022-Apr-02 00:00:00.0000, -4.044808026460269E+08, 1.045444612264025E+08, 9.825122206644155E+06,
2459678.500000000, A.D. 2022-Apr-09 00:00:00.0000, -4.068759591993203E+08, 9.481053686636762E+07, 1.008033741415979E+07,
2459685.500000000, A.D. 2022-Apr-16 00:00:00.0000, -4.090005291179004E+08, 8.501357124667190E+07, 1.032884876957738E+07,
2459692.500000000, A.D. 2022-Apr-23 00:00:00.0000, -4.108530450308284E+08, 7.516006944999748E+07, 1.057048942682112E+07,
2459699.500000000, A.D. 2022-Apr-30 00:00:00.0000, -4.124321471570680E+08, 6.525656510336606E+07, 1.080509535518077E+07,
2459706.500000000, A.D. 2022-May-07 00:00:00.0000, -4.137365846417381E+08, 5.530961977037533E+07, 1.103250531384522E+07,
2459713.500000000, A.D. 2022-May-14 00:00:00.0000, -4.147652150437191E+08, 4.532582279802885E+07, 1.125256067953577E+07,
2459720.500000000, A.D. 2022-May-21 00:00:00.0000, -4.155170040044782E+08, 3.531179236885870E+07, 1.146510537572476E+07,
2459727.500000000, A.D. 2022-May-28 00:00:00.0000, -4.159910255798861E+08, 2.527417679159919E+07, 1.166998586900938E+07,
2459734.500000000, A.D. 2022-Jun-04 00:00:00.0000, -4.161864629615205E+08, 1.521965571148497E+07, 1.186705118179517E+07,
2459741.500000000, A.D. 2022-Jun-11 00:00:00.0000, -4.161026094450707E+08, 5.154941236464259E+06, 1.205615290846641E+07,
2459748.500000000, A.D. 2022-Jun-18 00:00:00.0000, -4.157388696090303E+08, -4.913221013890576E+06, 1.223714523287171E+07,
2459755.500000000, A.D. 2022-Jun-25 00:00:00.0000, -4.150947606763662E+08, -1.497805097684645E+07, 1.240988494201141E+07,
2459762.500000000, A.D. 2022-Jul-02 00:00:00.0000, -4.141699139275286E+08, -2.503273340517553E+07, 1.257423141858147E+07,
2459769.500000000, A.D. 2022-Jul-09 00:00:00.0000, -4.129640757769324E+08, -3.507041714631675E+07, 1.273004659139877E+07,
2459776.500000000, A.D. 2022-Jul-16 00:00:00.0000, -4.114771085701260E+08, -4.508421336692685E+07, 1.287719493763782E+07,
2459783.500000000, A.D. 2022-Jul-23 00:00:00.0000, -4.097089933023546E+08, -5.506719265395018E+07, 1.301554374522129E+07,
2459790.500000000, A.D. 2022-Jul-30 00:00:00.0000, -4.076598341791041E+08, -6.501238435580395E+07, 1.314496335391886E+07,
2459797.500000000, A.D. 2022-Aug-06 00:00:00.0000, -4.053298614251065E+08, -7.491277752371183E+07, 1.326532709861430E+07,
2459804.500000000, A.D. 2022-Aug-13 00:00:00.0000, -4.027194331664281E+08, -8.476132070638202E+07, 1.337651125605993E+07,
2459811.500000000, A.D. 2022-Aug-20 00:00:00.0000, -3.998290379552688E+08, -9.455092111185957E+07, 1.347839509840301E+07,
2459818.500000000, A.D. 2022-Aug-27 00:00:00.0000, -3.966592978723717E+08, -1.042744438754651E+08, 1.357086098818879E+07,
2459825.500000000, A.D. 2022-Sep-03 00:00:00.0000, -3.932109719636652E+08, -1.139247115563381E+08, 1.365379448349271E+07,
2459832.500000000, A.D. 2022-Sep-10 00:00:00.0000, -3.894849599248709E+08, -1.234945038504668E+08, 1.372708444736567E+07,
2459839.500000000, A.D. 2022-Sep-17 00:00:00.0000, -3.854823060077045E+08, -1.329765575345682E+08, 1.379062315917540E+07,
2459846.500000000, A.D. 2022-Sep-24 00:00:00.0000, -3.812042030901912E+08, -1.423635667053764E+08, 1.384430641847846E+07,
2459853.500000000, A.D. 2022-Oct-01 00:00:00.0000, -3.766519966742382E+08, -1.516481833510041E+08, 1.388803361785892E+07,
2459860.500000000, A.D. 2022-Oct-08 00:00:00.0000, -3.718271884060231E+08, -1.608230177467420E+08, 1.392170779028522E+07,
2459867.500000000, A.D. 2022-Oct-15 00:00:00.0000, -3.667314400524145E+08, -1.698806374902872E+08, 1.394523581463124E+07,
2459874.500000000, A.D. 2022-Oct-22 00:00:00.0000, -3.613665801145183E+08, -1.788135668752779E+08, 1.395852884188469E+07,
2459881.500000000, A.D. 2022-Oct-29 00:00:00.0000, -3.557346105796605E+08, -1.876142892135889E+08, 1.396150250096496E+07,
2459888.500000000, A.D. 2022-Nov-05 00:00:00.0000, -3.498377117104594E+08, -1.962752493833153E+08, 1.395407691571444E+07,
2459895.500000000, A.D. 2022-Nov-12 00:00:00.0000, -3.436782468314918E+08, -2.047888553552613E+08, 1.393617681692249E+07,
2459902.500000000, A.D. 2022-Nov-19 00:00:00.0000, -3.372587678293217E+08, -2.131474796757027E+08, 1.390773173731724E+07,
2459909.500000000, A.D. 2022-Nov-26 00:00:00.0000, -3.305820211030617E+08, -2.213434613285930E+08, 1.386867623300014E+07,
2459916.500000000, A.D. 2022-Dec-03 00:00:00.0000, -3.236509538001067E+08, -2.293691080139331E+08, 1.381895011544164E+07,
2459923.500000000, A.D. 2022-Dec-10 00:00:00.0000, -3.164687202899981E+08, -2.372166988474524E+08, 1.375849869188468E+07,
2459930.500000000, A.D. 2022-Dec-17 00:00:00.0000, -3.090386888464831E+08, -2.448784875305614E+08, 1.368727301032503E+07,
2459937.500000000, A.D. 2022-Dec-24 00:00:00.0000, -3.013644484200944E+08, -2.523467060818820E+08, 1.360523009403726E+07,
2459944.500000000, A.D. 2022-Dec-31 00:00:00.0000, -2.934498151331859E+08, -2.596135690500440E+08, 1.351233314194699E+07,
2459951.500000000, A.D. 2023-Jan-07 00:00:00.0000, -2.852988383622396E+08, -2.666712772737637E+08, 1.340855176251283E+07,
2459958.500000000, A.D. 2023-Jan-14 00:00:00.0000, -2.769158083592167E+08, -2.735120207217463E+08, 1.329386246228522E+07,
2459965.500000000, A.D. 2023-Jan-21 00:00:00.0000, -2.683052660391383E+08, -2.801279836168180E+08, 1.316824918898693E+07,
2459972.500000000, A.D. 2023-Jan-28 00:00:00.0000, -2.594720112480686E+08, -2.865113520742791E+08, 1.303170357680641E+07,
2459979.500000000, A.D. 2023-Feb-04 00:00:00.0000, -2.504211097004718E+08, -2.926543212607313E+08, 1.288422516077973E+07,
2459986.500000000, A.D. 2023-Feb-11 00:00:00.0000, -2.411579003570567E+08, -2.985491022994887E+08, 1.272582170932393E+07,
2459993.500000000, A.D. 2023-Feb-18 00:00:00.0000, -2.316880032773558E+08, -3.041879297784128E+08, 1.255650961336009E+07,
2460000.500000000, A.D. 2023-Feb-25 00:00:00.0000, -2.220173276510141E+08, -3.095630700562225E+08, 1.237631429434563E+07,
2460007.500000000, A.D. 2023-Mar-04 00:00:00.0000, -2.121520798693052E+08, -3.146668303844678E+08, 1.218527062299404E+07,
2460014.500000000, A.D. 2023-Mar-11 00:00:00.0000, -2.020987715690411E+08, -3.194915688808293E+08, 1.198342334583408E+07,
2460021.500000000, A.D. 2023-Mar-18 00:00:00.0000, -1.918642275584073E+08, -3.240297054382427E+08, 1.177082751096961E+07,
2460028.500000000, A.D. 2023-Mar-25 00:00:00.0000, -1.814555933728326E+08, -3.282737336508394E+08, 1.154754887007999E+07,
2460035.500000000, A.D. 2023-Apr-01 00:00:00.0000, -1.708803419824896E+08, -3.322162333958724E+08, 1.131366424921092E+07,
2460042.500000000, A.D. 2023-Apr-08 00:00:00.0000, -1.601462802074127E+08, -3.358498828771139E+08, 1.106926204400204E+07,
2460049.500000000, A.D. 2023-Apr-15 00:00:00.0000, -1.492615571113105E+08, -3.391674712635658E+08, 1.081444296200681E+07,
2460056.500000000, A.D. 2023-Apr-22 00:00:00.0000, -1.382346724926813E+08, -3.421619150022557E+08, 1.054932059507202E+07,
2460063.500000000, A.D. 2023-Apr-29 00:00:00.0000, -1.270744826618342E+08, -3.448262755783321E+08, 1.027402175333297E+07,
2460070.500000000, A.D. 2023-May-06 00:00:00.0000, -1.157902051827851E+08, -3.471537769625776E+08, 9.988686866051286E+06,
2460077.500000000, A.D. 2023-May-13 00:00:00.0000, -1.043914234692081E+08, -3.491378236547475E+08, 9.693470463675842E+06,
2460084.500000000, A.D. 2023-May-20 00:00:00.0000, -9.288809090636015E+07, -3.507720198221498E+08, 9.388541676810548E+06,
2460091.500000000, A.D. 2023-May-27 00:00:00.0000, -8.129053420499016E+07, -3.520501895640591E+08, 9.074084728626311E+06,
2460098.500000000, A.D. 2023-Jun-03 00:00:00.0000, -6.960945582259303E+07, -3.529663982700914E+08, 8.750299413724780E+06,
2460105.500000000, A.D. 2023-Jun-10 00:00:00.0000, -5.785593531583019E+07, -3.535149750729925E+08, 8.417401556106463E+06,
2460112.500000000, A.D. 2023-Jun-17 00:00:00.0000, -4.604142941815587E+07, -3.536905364331411E+08, 8.075623429045826E+06,
2460119.500000000, A.D. 2023-Jun-24 00:00:00.0000, -3.417777040093639E+07, -3.534880107650628E+08, 7.725214107760519E+06,
2460126.500000000, A.D. 2023-Jul-01 00:00:00.0000, -2.227716233897359E+07, -3.529026632318957E+08, 7.366439794826552E+06,
2460133.500000000, A.D. 2023-Jul-08 00:00:00.0000, -1.035217682608433E+07, -3.519301198258187E+08, 6.999584334310785E+06,
2460140.500000000, A.D. 2023-Jul-15 00:00:00.0000, 1.584250712821787E+06, -3.505663934872175E+08, 6.624949795140803E+06,
2460147.500000000, A.D. 2023-Jul-22 00:00:00.0000, 1.351882776749801E+07, -3.488079132042438E+08, 6.242856710203484E+06,
$$EOE